{
    "links": {
        "self": "http://www.neowsapp.com/rest/v1/neo/3297389?api_key=iIulBulltgU6a56xZRHN4H3l9WmuAYTsLGpBGhQ2"
    },
    "id": "3297389",
    "neo_reference_id": "3297389",
    "name": "(2005 VP)",
    "designation": "2005 VP",
    "nasa_jpl_url": "http://ssd.jpl.nasa.gov/sbdb.cgi?sstr=3297389",
    "absolute_magnitude_h": 25.6,
    "estimated_diameter": {
        "kilometers": {
            "estimated_diameter_min": 0.0201629919,
            "estimated_diameter_max": 0.0450858206
        },
        "meters": {
            "estimated_diameter_min": 20.1629919443,
            "estimated_diameter_max": 45.0858206172
        },
        "miles": {
            "estimated_diameter_min": 0.0125286985,
            "estimated_diameter_max": 0.0280150214
        },
        "feet": {
            "estimated_diameter_min": 66.1515504905,
            "estimated_diameter_max": 147.9193637137
        }
    },
    "is_potentially_hazardous_asteroid": false,
    "close_approach_data": [
        {
            "close_approach_date": "2005-10-23",
            "close_approach_date_full": "2005-Oct-23 12:40",
            "epoch_date_close_approach": 1130071200000,
            "relative_velocity": {
                "kilometers_per_second": "11.1059155964",
                "kilometers_per_hour": "39981.2961469766",
                "miles_per_hour": "24842.8225975478"
            },
            "miss_distance": {
                "astronomical": "0.0376964754",
                "lunar": "14.6639289306",
                "kilometers": "5639312.426347398",
                "miles": "3504106.2541661724"
            },
            "orbiting_body": "Earth"
        }
    ],
    "orbital_data": {
        "orbit_id": "6",
        "orbit_determination_date": "2017-04-06 09:09:59",
        "first_observation_date": "2005-11-03",
        "last_observation_date": "2005-11-04",
        "data_arc_in_days": 1,
        "observations_used": 11,
        "orbit_uncertainty": "9",
        "minimum_orbit_intersection": ".029942",
        "jupiter_tisserand_invariant": "3.287",
        "epoch_osculation": "2453678.5",
        "eccentricity": ".5927607617358802",
        "semi_major_axis": "2.356150246038884",
        "inclination": "5.500460228140152",
        "ascending_node_longitude": "222.9604472392155",
        "orbital_period": "1321.000245240196",
        "perihelion_distance": ".9595168314326936",
        "perihelion_argument": "133.9824915559492",
        "aphelion_distance": "3.752783660645075",
        "perihelion_time": "2453641.862979923389",
        "mean_anomaly": "9.984348810761773",
        "mean_motion": ".2725207669696849",
        "equinox": "J2000",
        "orbit_class": {
            "orbit_class_type": "APO",
            "orbit_class_description": "Near-Earth asteroid orbits which cross the Earth’s orbit similar to that of 1862 Apollo",
            "orbit_class_range": "a (semi-major axis) > 1.0 AU; q (perihelion) < 1.017 AU"
        }
    },
    "is_sentry_object": false
}